{"type":"FeatureCollection","features":[{"type":"Feature","properties":{"nome":"zona Santa Teresa Verzeri"},"geometry":{"coordinates":[[[11.118806960610016,46.06836034070815],[11.119095649767445,46.066765316791304],[11.121004386832169,46.06694169324146],[11.120842114978785,46.067680951077506],[11.120034795894469,46.068445677244085],[11.118806960610016,46.06836034070815]]],"type":"Polygon"},"id":0},{"type":"Feature","properties":{"nome":"Zona sub-duomo"},"geometry":{"coordinates":[[[11.119106974200292,46.06657714528308],[11.119358610672492,46.065311561996936],[11.121192072466897,46.06551313828331],[11.121167828078342,46.06492218798169],[11.121495187761667,46.06464112847095],[11.123186137961966,46.0648257946732],[11.122362700269576,46.06659855905852],[11.121012696808606,46.066480359286686],[11.120977316992935,46.066770561986885],[11.119106974200292,46.06657714528308]]],"type":"Polygon"},"id":1},{"type":"Feature","properties":{"nome":"zona dante-duomo"},"geometry":{"coordinates":[[[11.119680491273925,46.07004373775641],[11.120090095467305,46.06834619114046],[11.120816295824383,46.067681667811904],[11.121530685383846,46.067720117274945],[11.122103535118,46.06773613780699],[11.122569137491922,46.0681118013801],[11.122561624593175,46.069789406309326],[11.121738806619092,46.06977873847914],[11.1216463290925,46.070192974558424],[11.119680491273925,46.07004373775641]]],"type":"Polygon"},"id":2},{"type":"Feature","properties":{"nome":"zona Tommaso Gar"},"geometry":{"coordinates":[[[11.117078414617282,46.06813245972728],[11.117632855701373,46.065161390888136],[11.11937073501872,46.06521198180678],[11.118779991937544,46.068283720727635],[11.117078414617282,46.06813245972728]]],"type":"Polygon"},"id":3},{"type":"Feature","properties":{"nome":"zona Muse"},"geometry":{"coordinates":[[[11.11366476374451,46.064712646901],[11.112962730148297,46.062498894117255],[11.11316331117635,46.062268380374945],[11.115739523747436,46.06248149688733],[11.115451188519529,46.064917055746065],[11.11366476374451,46.064712646901]]],"type":"Polygon"}},{"type":"Feature","properties":{"nome":"zona Albere"},"geometry":{"coordinates":[[[11.113021774936982,46.06216471355043],[11.112824246432439,46.06186317944298],[11.11276103731035,46.06101339264268],[11.112207957497162,46.06096404978197],[11.11219215521686,46.05948922613203],[11.112713630469386,46.05948922613203],[11.112697828189056,46.05911091929332],[11.115573843218698,46.059149298366236],[11.115850383124865,46.05975239457766],[11.115558040938367,46.062345633224766],[11.113021774936982,46.06216471355043]]],"type":"Polygon"}},{"type":"Feature","properties":{"nome ":"Zona Travai"},"geometry":{"coordinates":[[[11.119267750737095,46.065287867548165],[11.119559186043773,46.063867817415314],[11.119315103378597,46.063572181319586],[11.121654804902903,46.063718652651744],[11.121504430357447,46.06463213204523],[11.121170251001502,46.06490769135425],[11.12118471385429,46.065504263809146],[11.119267750737095,46.065287867548165]]],"type":"Polygon"},"id":6},{"type":"Feature","properties":{"nome":"zona duomo"},"geometry":{"coordinates":[[[11.12090605440656,46.06769563979768],[11.121041323976073,46.06692006376579],[11.120114069642199,46.066840895015105],[11.119078574504528,46.06673556313231],[11.119116556209264,46.06657542828617],[11.121003249203142,46.0667908301501],[11.121011133849606,46.06648643190522],[11.12236967782448,46.06660950525597],[11.12213851977856,46.06762846073261],[11.12090605440656,46.06769563979768]]],"type":"Polygon"}},{"type":"Feature","properties":{"nome":"zona tribunale"},"geometry":{"coordinates":[[[11.124756651684606,46.06576725996814],[11.124836643476272,46.065303112184296],[11.125231002167084,46.065229161565384],[11.125163619576739,46.06489363082861],[11.12779511409289,46.0644533280649],[11.129137484570009,46.066850540012155],[11.126143219538022,46.06725547268374],[11.124756651684606,46.06576725996814]]],"type":"Polygon"}},{"type":"Feature","properties":{"nome":"zona castello"},"geometry":{"coordinates":[[[11.126183087113162,46.07195162597944],[11.125070631826077,46.07204118175878],[11.124470587320644,46.07014506100458],[11.125467247188368,46.07014313129304],[11.1258839351039,46.06898734852672],[11.126524405283533,46.06943708317357],[11.12723831877247,46.069664087717825],[11.1275300880243,46.07038207672374],[11.127457639291123,46.07096149634988],[11.127213523209434,46.07163623047328],[11.126183087113162,46.07195162597944]]],"type":"Polygon"},"id":9},{"type":"Feature","properties":{"nome":"zona venezia 2"},"geometry":{"coordinates":[[[11.127232416347255,46.069662222078165],[11.125887010174921,46.068986234994924],[11.125875432398203,46.06883015490976],[11.125252288034034,46.06840122055766],[11.126600946349498,46.06750988827568],[11.127354089421829,46.06942400906769],[11.127232416347255,46.069662222078165]]],"type":"Polygon"}},{"type":"Feature","properties":{"nome":"Zona Torre Verde"},"geometry":{"coordinates":[[[11.126372644865711,46.071974406808295],[11.127200245000921,46.07225211929446],[11.12629997349822,46.073467323415116],[11.124856213227048,46.07353897599464],[11.124731985228323,46.07226984691516],[11.126372644865711,46.071974406808295]]],"type":"Polygon"}},{"type":"Feature","properties":{"nome":"zona duomo-fiera-venezia"},"geometry":{"coordinates":[[[11.122365405567052,46.06662397562965],[11.1230147153737,46.06554207027659],[11.124706856082724,46.065743435970205],[11.126054665832157,46.06726560033334],[11.126354725667397,46.06759664846041],[11.125238109560257,46.06838160000228],[11.123862387180651,46.06829267990432],[11.122608668316786,46.06811881969652],[11.1224547886398,46.067919247830964],[11.122169249873991,46.06776396169528],[11.122365405567052,46.06662397562965]]],"type":"Polygon"},"id":12},{"type":"Feature","properties":{"nome":"zona Cesare Battisti"},"geometry":{"coordinates":[[[11.122545721145144,46.06978086496443],[11.122597774810487,46.06813373911166],[11.12418455419521,46.06834430923348],[11.124431256893132,46.07003743244843],[11.122545721145144,46.06978086496443]]],"type":"Polygon"},"id":13},{"type":"Feature","properties":{"nome":"zona torre vanga"},"geometry":{"coordinates":[[[11.117854236662538,46.06991786022124],[11.117174899236971,46.06945745187875],[11.116768244157186,46.06880220770515],[11.117088042967879,46.06814136527896],[11.118786240480603,46.06829261408174],[11.120062044108607,46.06843477439321],[11.119682506424311,46.070036365641386],[11.117854236662538,46.06991786022124]]],"type":"Polygon"},"id":14},{"type":"Feature","properties":{"nome":"zona pietro e paolo"},"geometry":{"coordinates":[[[11.124451341572012,46.07003283915665],[11.124217461547744,46.06840265850465],[11.125218250488416,46.06839133763722],[11.12587637799868,46.068844170518474],[11.12548476493393,46.07013095034509],[11.124451341572012,46.07003283915665]]],"type":"Polygon"},"id":15},{"type":"Feature","properties":{"nome":"zona piazza fiera"},"geometry":{"coordinates":[[[11.123027642360626,46.06554325833039],[11.123190286824013,46.06480726232391],[11.124804071376133,46.064733807153175],[11.124734653625268,46.06572793435532],[11.123027642360626,46.06554325833039]]],"type":"Polygon"},"id":16},{"type":"Feature","properties":{"nome":"zona venezia"},"geometry":{"coordinates":[[[11.1284347662492,46.06986692751286],[11.127639613175177,46.06993790499544],[11.126608577654366,46.06751376973526],[11.127987850174662,46.067334023462934],[11.128433869001924,46.06780722455596],[11.128944547747778,46.067573617229044],[11.129672368795411,46.06754575845605],[11.1284347662492,46.06986692751286]]],"type":"Polygon"}},{"type":"Feature","properties":{"Nome":"zona stazione"},"geometry":{"coordinates":[[[11.119931680682072,46.07264996498955],[11.117874712135404,46.069911185046294],[11.121645821136156,46.07019227661442],[11.121604266216167,46.071907624904725],[11.119931680682072,46.07264996498955]]],"type":"Polygon"},"id":18}]}